HST                     
1 20580U 90037B   26196.50035387  .00003469  00000+0  10488-3 0  9994
2 20580  28.4723 247.0189 0002191 106.0764 254.0074 15.31063070792917
POLAR                   
1 23802U 96013A   26195.76553022  .00000202  00000+0  00000+0 0  9999
2 23802  79.8911 226.7248 6498087 208.1291  91.6735  1.29846068145216
SWAS                    
1 25560U 98071A   26196.90400316  .00001554  00000+0  10258-3 0  9993
2 25560  69.8941 153.4556 0007915 229.7336 130.3137 15.09749630501604
CXO                     
1 25867U 99040B   26198.46886808  .00000598  00000+0  00000+0 0  9994
2 25867  56.6226 115.7943 7787022 310.0504   0.5333  0.37805709 17431
XMM-NEWTON              
1 25989U 99066A   26199.26509818 -.00000005  00000+0  00000+0 0  9993
2 25989  64.3180 282.5861 4665036  64.3602 359.9798  0.50127855 23154
TERRA                   
1 25994U 99068A   26196.91535538  .00000174  00000+0  44337-4 0  9990
2 25994  97.9441 245.3203 0003445 121.1429 292.0122 14.61123995413805
CLUSTER II-FM7 (SAMBA)  
1 26410U 00041A   26197.13957185  .00051232 -58450-4  00000+0 0  9991
2 26410 149.8273  56.2567 9088690 273.7641 359.2168  0.44844033 20444
CLUSTER II-FM8 (TANGO)  
1 26464U 00045B   26195.45080911  .00019808  00000+0  00000+0 0  9996
2 26464 150.0346  57.1658 9090382 274.4944   1.9905  0.44416740 20433
ODIN                    
1 26702U 01007A   26196.11738259  .00268050  28117-4  92766-3 0  9992
2 26702  97.3728 239.0985 0005003 152.5421 207.6117 15.89461170393819
TIMED                   
1 26998U 01055B   26196.97749238  .00000548  00000+0  53271-4 0  9996
2 26998  74.0666 177.0467 0002255 299.8954  60.2006 14.95345532335126
CORIOLIS                
1 27640U 03001A   26196.94685399  .00000034  00000+0  36310-4 0  9993
2 27640  98.7134 203.3932 0014951 127.1825 233.0719 14.19951970218306
SORCE                   
1 27651U 03004A   26196.09845254  .00001382  00000+0  10927-3 0  9994
2 27651  39.9910 102.4143 0018709 253.8759 105.9975 15.03841818276104
MOST                    
1 27843U 03031D   26196.93311963  .00000011  00000+0  25082-4 0  9992
2 27843  98.7053 204.2585 0010125 162.9842 197.1677 14.21327797194796
SCISAT 1                
1 27858U 03036A   26196.92542400  .00000257  00000+0  37476-4 0  9996
2 27858  73.9301 114.2440 0007337 182.1832 177.9314 14.81479370235709
SWIFT                   
1 28485U 04047A   26196.46571655  .00041696  00000+0  30635-3 0  9990
2 28485  20.5527 326.3099 0002205  28.4870 331.5697 15.71188268191316
HINODE (SOLAR-B)        
1 29479U 06041A   26196.93668128  .00000281  00000+0  56679-4 0  9996
2 29479  98.0548 212.6654 0017085 192.0706 168.0092 14.68658759 59097
SHIJIAN-6 02A (SJ-6 02A)
1 29505U 06046A   26196.91471676  .00002481  00000+0  12815-3 0  9996
2 29505  97.6346 238.1997 0004282  61.2867 298.8796 15.17249325 76622
SHIJIAN-6 02B (SJ-6 02B)
1 29506U 06046B   26197.00389260  .00000509  00000+0  44107-4 0  9994
2 29506  97.7143 225.8837 0013321 333.5658  26.4885 15.01438641 75067
FGRST (GLAST)           
1 33053U 08029A   26196.77585979  .00001968  00000+0  65298-4 0  9991
2 33053  25.5829   5.9555 0007774 306.4687  53.5135 15.24078577    58
SDO                     
1 36395U 10005A   26196.34409457 -.00000103  00000+0  00000+0 0  9995
2 36395  34.7081  85.9138 0001835  46.0485 182.8654  1.00277108 60342
CRYOSAT 2               
1 36508U 10013A   26196.95906655  .00000120  00000+0  29082-4 0  9993
2 36508  92.0359 284.2963 0002405  98.7234 261.4245 14.51898563862257
X-SAT                   
1 37389U 11015C   26196.93944367 -.00000113  00000+0 -30666-4 0  9998
2 37389  98.3523 172.5958 0012718 258.5414 101.4338 14.25213521791774
GCOM-W1 (SHIZUKU)       
1 38337U 12025A   26196.87494885  .00000196  00000+0  53474-4 0  9993
2 38337  98.2024 136.9968 0001301  78.0138 349.2281 14.57090500753213
NUSTAR                  
1 38358U 12031A   26197.00002315  .00004690  00000+0  23478-3 0  9995
2 38358   6.0245 177.9673 0007774 185.1070 247.5534 15.09046623  1303
NEOSSAT                 
1 39089U 13009D   26196.78090769  .00000049  00000+0  31660-4 0  9994
2 39089  98.4190  16.1354 0011480 155.5744 204.5989 14.35835788700845
BRITE-AUSTRIA           
1 39091U 13009F   26196.76529549  .00000075  00000+0  39948-4 0  9994
2 39091  98.4008  15.4957 0010793 149.0396 211.1429 14.36552666701154
IRIS                    
1 39197U 13033A   26196.51497803  .00000512  00000+0  64789-4 0  9995
2 39197  97.9319  35.7028 0023347 223.9146 136.0214 14.85937284704582
HISAKI (SPRINT-A)       
1 39253U 13049A   26196.92504404  .00000089  00000+0  29468-4 0  9990
2 39253  29.7213  73.9016 0136985 249.7982 108.7810 13.55546789635324
CASSIOPE                
1 39265U 13055A   26196.93840198  .00018495 -53874-6  19799-3 0  9994
2 39265  80.9127  31.7343 0282742 325.3550  32.9538 15.27448387672052
STSAT-3                 
1 39422U 13066G   26196.94311784  .00001469  00000+0  11398-3 0  9991
2 39422  97.6189 166.3672 0008906 302.2756  57.7606 15.02888092688524
